{
  "type": "FeatureCollection",
  "metadata_source": "C:\\Users\\mohda\\OneDrive\\Desktop\\SIH\\TRACE\\outputs\\detection_metadata.json",
  "total_spills_found": 1,
  "features": [
    {
      "type": "Feature",
      "properties": {
        "spill_id": "spill_001",
        "source_image": "2018_09_26.tif",
        "detected_oil_pixels": 350491,
        "detected_area_percentage": 2.7,
        "threshold_db": -28,
        "area_km2": 21.02,
        "perimeter_km": 21.303,
        "centroid_lon_lat": [
          70.5002,
          20.0998
        ],
        "bbox_minx_miny_maxx_maxy": [
          70.476,
          20.0756,
          70.5244,
          20.124
        ]
      },
      "geometry": {
        "type": "Polygon",
        "coordinates": [
          [
            [
              70.5,
              20.124
            ],
            [
              70.5,
              20.1236
            ],
            [
              70.49600000000001,
              20.1236
            ],
            [
              70.49600000000001,
              20.1232
            ],
            [
              70.494,
              20.1232
            ],
            [
              70.494,
              20.122799999999998
            ],
            [
              70.4928,
              20.122799999999998
            ],
            [
              70.4928,
              20.1224
            ],
            [
              70.4916,
              20.1224
            ],
            [
              70.4916,
              20.122
            ],
            [
              70.49080000000001,
              20.122
            ],
            [
              70.49080000000001,
              20.1216
            ],
            [
              70.48960000000001,
              20.1216
            ],
            [
              70.48960000000001,
              20.121199999999998
            ],
            [
              70.48880000000001,
              20.121199999999998
            ],
            [
              70.48880000000001,
              20.1208
            ],
            [
              70.4884,
              20.1208
            ],
            [
              70.4884,
              20.1204
            ],
            [
              70.4876,
              20.1204
            ],
            [
              70.4876,
              20.12
            ],
            [
              70.4868,
              20.12
            ],
            [
              70.4868,
              20.1196
            ],
            [
              70.4864,
              20.1196
            ],
            [
              70.4864,
              20.1192
            ],
            [
              70.4856,
              20.1192
            ],
            [
              70.4856,
              20.1188
            ],
            [
              70.4852,
              20.1188
            ],
            [
              70.4852,
              20.118399999999998
            ],
            [
              70.4848,
              20.118399999999998
            ],
            [
              70.4848,
              20.118
            ],
            [
              70.48440000000001,
              20.118
            ],
            [
              70.48440000000001,
              20.1176
            ],
            [
              70.48400000000001,
              20.1176
            ],
            [
              70.48400000000001,
              20.1172
            ],
            [
              70.48360000000001,
              20.1172
            ],
            [
              70.48360000000001,
              20.116799999999998
            ],
            [
              70.48320000000001,
              20.116799999999998
            ],
            [
              70.48320000000001,
              20.1164
            ],
            [
              70.48280000000001,
              20.1164
            ],
            [
              70.48280000000001,
              20.116
            ],
            [
              70.48240000000001,
              20.116
            ],
            [
              70.48240000000001,
              20.1156
            ],
            [
              70.482,
              20.1156
            ],
            [
              70.482,
              20.115199999999998
            ],
            [
              70.4816,
              20.115199999999998
            ],
            [
              70.4816,
              20.1148
            ],
            [
              70.4812,
              20.1148
            ],
            [
              70.4812,
              20.1144
            ],
            [
              70.4808,
              20.1144
            ],
            [
              70.4808,
              20.113599999999998
            ],
            [
              70.4804,
              20.113599999999998
            ],
            [
              70.4804,
              20.1132
            ],
            [
              70.48,
              20.1132
            ],
            [
              70.48,
              20.1124
            ],
            [
              70.4796,
              20.1124
            ],
            [
              70.4796,
              20.1116
            ],
            [
              70.4792,
              20.1116
            ],
            [
              70.4792,
              20.1112
            ],
            [
              70.4788,
              20.1112
            ],
            [
              70.4788,
              20.1104
            ],
            [
              70.47840000000001,
              20.1104
            ],
            [
              70.47840000000001,
              20.109199999999998
            ],
            [
              70.47800000000001,
              20.109199999999998
            ],
            [
              70.47800000000001,
              20.1084
            ],
            [
              70.47760000000001,
              20.1084
            ],
            [
              70.47760000000001,
              20.1072
            ],
            [
              70.47720000000001,
              20.1072
            ],
            [
              70.47720000000001,
              20.105999999999998
            ],
            [
              70.47680000000001,
              20.105999999999998
            ],
            [
              70.47680000000001,
              20.104
            ],
            [
              70.47640000000001,
              20.104
            ],
            [
              70.47640000000001,
              20.099999999999998
            ],
            [
              70.476,
              20.099999999999998
            ],
            [
              70.476,
              20.0996
            ],
            [
              70.47640000000001,
              20.0996
            ],
            [
              70.47640000000001,
              20.0956
            ],
            [
              70.47680000000001,
              20.0956
            ],
            [
              70.47680000000001,
              20.0936
            ],
            [
              70.47720000000001,
              20.0936
            ],
            [
              70.47720000000001,
              20.092399999999998
            ],
            [
              70.47760000000001,
              20.092399999999998
            ],
            [
              70.47760000000001,
              20.0912
            ],
            [
              70.47800000000001,
              20.0912
            ],
            [
              70.47800000000001,
              20.0904
            ],
            [
              70.47840000000001,
              20.0904
            ],
            [
              70.47840000000001,
              20.089199999999998
            ],
            [
              70.4788,
              20.089199999999998
            ],
            [
              70.4788,
              20.0884
            ],
            [
              70.4792,
              20.0884
            ],
            [
              70.4792,
              20.088
            ],
            [
              70.4796,
              20.088
            ],
            [
              70.4796,
              20.0872
            ],
            [
              70.48,
              20.0872
            ],
            [
              70.48,
              20.086399999999998
            ],
            [
              70.4804,
              20.086399999999998
            ],
            [
              70.4804,
              20.086
            ],
            [
              70.4808,
              20.086
            ],
            [
              70.4808,
              20.0852
            ],
            [
              70.4812,
              20.0852
            ],
            [
              70.4812,
              20.084799999999998
            ],
            [
              70.4816,
              20.084799999999998
            ],
            [
              70.4816,
              20.0844
            ],
            [
              70.482,
              20.0844
            ],
            [
              70.482,
              20.084
            ],
            [
              70.48240000000001,
              20.084
            ],
            [
              70.48240000000001,
              20.0836
            ],
            [
              70.48280000000001,
              20.0836
            ],
            [
              70.48280000000001,
              20.083199999999998
            ],
            [
              70.48320000000001,
              20.083199999999998
            ],
            [
              70.48320000000001,
              20.0828
            ],
            [
              70.48360000000001,
              20.0828
            ],
            [
              70.48360000000001,
              20.0824
            ],
            [
              70.48400000000001,
              20.0824
            ],
            [
              70.48400000000001,
              20.082
            ],
            [
              70.48440000000001,
              20.082
            ],
            [
              70.48440000000001,
              20.081599999999998
            ],
            [
              70.4848,
              20.081599999999998
            ],
            [
              70.4848,
              20.0812
            ],
            [
              70.4852,
              20.0812
            ],
            [
              70.4852,
              20.0808
            ],
            [
              70.4856,
              20.0808
            ],
            [
              70.4856,
              20.0804
            ],
            [
              70.4864,
              20.0804
            ],
            [
              70.4864,
              20.08
            ],
            [
              70.4868,
              20.08
            ],
            [
              70.4868,
              20.0796
            ],
            [
              70.4876,
              20.0796
            ],
            [
              70.4876,
              20.0792
            ],
            [
              70.4884,
              20.0792
            ],
            [
              70.4884,
              20.078799999999998
            ],
            [
              70.48880000000001,
              20.078799999999998
            ],
            [
              70.48880000000001,
              20.0784
            ],
            [
              70.48960000000001,
              20.0784
            ],
            [
              70.48960000000001,
              20.078
            ],
            [
              70.49080000000001,
              20.078
            ],
            [
              70.49080000000001,
              20.0776
            ],
            [
              70.4916,
              20.0776
            ],
            [
              70.4916,
              20.077199999999998
            ],
            [
              70.4928,
              20.077199999999998
            ],
            [
              70.4928,
              20.0768
            ],
            [
              70.494,
              20.0768
            ],
            [
              70.494,
              20.0764
            ],
            [
              70.49600000000001,
              20.0764
            ],
            [
              70.49600000000001,
              20.076
            ],
            [
              70.5,
              20.076
            ],
            [
              70.5,
              20.075599999999998
            ],
            [
              70.5004,
              20.075599999999998
            ],
            [
              70.5004,
              20.076
            ],
            [
              70.5044,
              20.076
            ],
            [
              70.5044,
              20.0764
            ],
            [
              70.5064,
              20.0764
            ],
            [
              70.5064,
              20.0768
            ],
            [
              70.50760000000001,
              20.0768
            ],
            [
              70.50760000000001,
              20.077199999999998
            ],
            [
              70.50880000000001,
              20.077199999999998
            ],
            [
              70.50880000000001,
              20.0776
            ],
            [
              70.5096,
              20.0776
            ],
            [
              70.5096,
              20.078
            ],
            [
              70.5108,
              20.078
            ],
            [
              70.5108,
              20.0784
            ],
            [
              70.5116,
              20.0784
            ],
            [
              70.5116,
              20.078799999999998
            ],
            [
              70.512,
              20.078799999999998
            ],
            [
              70.512,
              20.0792
            ],
            [
              70.5128,
              20.0792
            ],
            [
              70.5128,
              20.0796
            ],
            [
              70.51360000000001,
              20.0796
            ],
            [
              70.51360000000001,
              20.08
            ],
            [
              70.51400000000001,
              20.08
            ],
            [
              70.51400000000001,
              20.0804
            ],
            [
              70.51480000000001,
              20.0804
            ],
            [
              70.51480000000001,
              20.0808
            ],
            [
              70.51520000000001,
              20.0808
            ],
            [
              70.51520000000001,
              20.0812
            ],
            [
              70.5156,
              20.0812
            ],
            [
              70.5156,
              20.081599999999998
            ],
            [
              70.516,
              20.081599999999998
            ],
            [
              70.516,
              20.082
            ],
            [
              70.5164,
              20.082
            ],
            [
              70.5164,
              20.0824
            ],
            [
              70.5168,
              20.0824
            ],
            [
              70.5168,
              20.0828
            ],
            [
              70.5172,
              20.0828
            ],
            [
              70.5172,
              20.083199999999998
            ],
            [
              70.5176,
              20.083199999999998
            ],
            [
              70.5176,
              20.0836
            ],
            [
              70.518,
              20.0836
            ],
            [
              70.518,
              20.084
            ],
            [
              70.5184,
              20.084
            ],
            [
              70.5184,
              20.0844
            ],
            [
              70.5188,
              20.0844
            ],
            [
              70.5188,
              20.084799999999998
            ],
            [
              70.51920000000001,
              20.084799999999998
            ],
            [
              70.51920000000001,
              20.0852
            ],
            [
              70.51960000000001,
              20.0852
            ],
            [
              70.51960000000001,
              20.086
            ],
            [
              70.52000000000001,
              20.086
            ],
            [
              70.52000000000001,
              20.086399999999998
            ],
            [
              70.52040000000001,
              20.086399999999998
            ],
            [
              70.52040000000001,
              20.0872
            ],
            [
              70.52080000000001,
              20.0872
            ],
            [
              70.52080000000001,
              20.088
            ],
            [
              70.52120000000001,
              20.088
            ],
            [
              70.52120000000001,
              20.0884
            ],
            [
              70.5216,
              20.0884
            ],
            [
              70.5216,
              20.089199999999998
            ],
            [
              70.522,
              20.089199999999998
            ],
            [
              70.522,
              20.0904
            ],
            [
              70.5224,
              20.0904
            ],
            [
              70.5224,
              20.0912
            ],
            [
              70.5228,
              20.0912
            ],
            [
              70.5228,
              20.092399999999998
            ],
            [
              70.5232,
              20.092399999999998
            ],
            [
              70.5232,
              20.0936
            ],
            [
              70.5236,
              20.0936
            ],
            [
              70.5236,
              20.0956
            ],
            [
              70.524,
              20.0956
            ],
            [
              70.524,
              20.0996
            ],
            [
              70.5244,
              20.0996
            ],
            [
              70.5244,
              20.099999999999998
            ],
            [
              70.524,
              20.099999999999998
            ],
            [
              70.524,
              20.104
            ],
            [
              70.5236,
              20.104
            ],
            [
              70.5236,
              20.105999999999998
            ],
            [
              70.5232,
              20.105999999999998
            ],
            [
              70.5232,
              20.1072
            ],
            [
              70.5228,
              20.1072
            ],
            [
              70.5228,
              20.1084
            ],
            [
              70.5224,
              20.1084
            ],
            [
              70.5224,
              20.109199999999998
            ],
            [
              70.522,
              20.109199999999998
            ],
            [
              70.522,
              20.1104
            ],
            [
              70.5216,
              20.1104
            ],
            [
              70.5216,
              20.1112
            ],
            [
              70.52120000000001,
              20.1112
            ],
            [
              70.52120000000001,
              20.1116
            ],
            [
              70.52080000000001,
              20.1116
            ],
            [
              70.52080000000001,
              20.1124
            ],
            [
              70.52040000000001,
              20.1124
            ],
            [
              70.52040000000001,
              20.1132
            ],
            [
              70.52000000000001,
              20.1132
            ],
            [
              70.52000000000001,
              20.113599999999998
            ],
            [
              70.51960000000001,
              20.113599999999998
            ],
            [
              70.51960000000001,
              20.1144
            ],
            [
              70.51920000000001,
              20.1144
            ],
            [
              70.51920000000001,
              20.1148
            ],
            [
              70.5188,
              20.1148
            ],
            [
              70.5188,
              20.115199999999998
            ],
            [
              70.5184,
              20.115199999999998
            ],
            [
              70.5184,
              20.1156
            ],
            [
              70.518,
              20.1156
            ],
            [
              70.518,
              20.116
            ],
            [
              70.5176,
              20.116
            ],
            [
              70.5176,
              20.1164
            ],
            [
              70.5172,
              20.1164
            ],
            [
              70.5172,
              20.116799999999998
            ],
            [
              70.5168,
              20.116799999999998
            ],
            [
              70.5168,
              20.1172
            ],
            [
              70.5164,
              20.1172
            ],
            [
              70.5164,
              20.1176
            ],
            [
              70.516,
              20.1176
            ],
            [
              70.516,
              20.118
            ],
            [
              70.5156,
              20.118
            ],
            [
              70.5156,
              20.118399999999998
            ],
            [
              70.51520000000001,
              20.118399999999998
            ],
            [
              70.51520000000001,
              20.1188
            ],
            [
              70.51480000000001,
              20.1188
            ],
            [
              70.51480000000001,
              20.1192
            ],
            [
              70.51400000000001,
              20.1192
            ],
            [
              70.51400000000001,
              20.1196
            ],
            [
              70.51360000000001,
              20.1196
            ],
            [
              70.51360000000001,
              20.12
            ],
            [
              70.5128,
              20.12
            ],
            [
              70.5128,
              20.1204
            ],
            [
              70.512,
              20.1204
            ],
            [
              70.512,
              20.1208
            ],
            [
              70.5116,
              20.1208
            ],
            [
              70.5116,
              20.121199999999998
            ],
            [
              70.5108,
              20.121199999999998
            ],
            [
              70.5108,
              20.1216
            ],
            [
              70.5096,
              20.1216
            ],
            [
              70.5096,
              20.122
            ],
            [
              70.50880000000001,
              20.122
            ],
            [
              70.50880000000001,
              20.1224
            ],
            [
              70.50760000000001,
              20.1224
            ],
            [
              70.50760000000001,
              20.122799999999998
            ],
            [
              70.5064,
              20.122799999999998
            ],
            [
              70.5064,
              20.1232
            ],
            [
              70.5044,
              20.1232
            ],
            [
              70.5044,
              20.1236
            ],
            [
              70.5004,
              20.1236
            ],
            [
              70.5004,
              20.124
            ],
            [
              70.5,
              20.124
            ]
          ]
        ]
      }
    }
  ]
}